HAWK-11A                
1 62382U 24247F   26068.51231358  .00009457  00000+0  34106-3 0  9991
2 62382  44.9941 114.3328 0005466 327.3713  32.6832 15.28849427 67741
STARLINK-32841          
1 62865U 25022M   26068.45233147  .00034344  00000+0  11668-2 0  9990
2 62865  53.1577 130.7280 0001346  81.5163 278.5991 15.30186569 61851
